SatCatId,ObjectName,LaunchYear,OrbitalPeriod,LaunchMass,StatusCode,Inclination,Status,UcsData,OrbitClassEstimated,LaunchSiteCountry,Owner,UseType,Purpose,LaunchVehicleClass,TLE1,TLE2,MeanMotion,Eccentricity,OrbitClass
45084,STARLINK-1173,2020,95.59,227.0,+,53.05,Active,1,LEO,USA,USA,Commercial,Communications,Falcon,1 45084U 20006AS  24264.34254623  .00002464  00000+0  18424-3 0  9993,2 45084  53.0529 129.8872 0001216 114.3201 245.7915 15.06402576256334,15.06402576,0.0001216,LEO
45085,STARLINK-1179,2020,95.59,227.0,+,53.05,Active,1,LEO,USA,USA,Commercial,Communications,Falcon,1 45085U 20006AT  24264.33886465  .00010021  00000+0  69079-3 0  9998,2 45085  53.0527 129.9028 0001385  93.1236 266.9911 15.06395359256337,15.06395359,0.0001385,LEO
45087,STARLINK-1185,2020,95.59,227.0,+,53.05,Active,1,LEO,USA,USA,Commercial,Communications,Falcon,1 45087U 20006AV  24264.05872943  .00010388  00000+0  71503-3 0  9996,2 45087  53.0525 131.1591 0000767  69.0948 291.0123 15.06408980256296,15.0640898,7.67e-05,LEO
45088,STARLINK-1183,2020,95.59,227.0,+,53.05,Active,1,LEO,USA,USA,Commercial,Communications,Falcon,1 45088U 20006AW  24264.34623225  .00004141  00000+0  29669-3 0  9992,2 45088  53.0522 129.8704 0001093  80.9061 279.2052 15.06400590256338,15.0640059,0.0001093,LEO
45089,STARLINK-1136,2020,95.59,227.0,+,53.05,Active,1,LEO,USA,USA,Commercial,Communications,Falcon,1 45089U 20006AX  24264.35361405  .00003441  00000+0  24975-3 0  9990,2 45089  53.0517 129.9239 0001255  84.0170 276.0962 15.06403170256346,15.0640317,0.0001255,LEO
45090,STARLINK-1176,2020,95.59,227.0,+,53.05,Active,1,LEO,USA,USA,Commercial,Communications,Falcon,1 45090U 20006AY  24264.33054662  .00011671  00000+0  80103-3 0  9993,2 45090  53.0522 129.9281 0001295 106.2042 253.9090 15.06402694256335,15.06402694,0.0001295,LEO
45092,STARLINK-1137,2020,95.59,227.0,+,53.05,Active,1,LEO,USA,USA,Commercial,Communications,Falcon,1 45092U 20006BA  24264.04030328  .00004955  00000+0  35137-3 0  9990,2 45092  53.0516 131.2407 0002027 100.8501 259.2717 15.06394477256288,15.06394477,0.0002027,LEO
45093,STARLINK-1142,2020,95.39,227.0,+,53.05,Active,1,LEO,USA,USA,Commercial,Communications,Falcon,1 45093U 20006BB  24264.32460349  .00022412  00000+0  13928-2 0  9993,2 45093  53.0510 129.5057 0002168 179.9265 180.1726 15.09591325256336,15.09591325,0.0002168,LEO
45094,STARLINK-1146,2020,95.59,227.0,+,53.05,Active,1,LEO,USA,USA,Commercial,Communications,Falcon,1 45094U 20006BC  24264.05041681  .00007158  00000+0  49885-3 0  9990,2 45094  53.0522 131.1853 0001279 132.9509 227.1587 15.06406207256298,15.06406207,0.0001279,LEO
45095,STARLINK-1147,2020,95.59,227.0,+,53.05,Active,1,LEO,USA,USA,Commercial,Communications,Falcon,1 45095U 20006BD  24264.04405979  .00006804  00000+0  47523-3 0  9998,2 45095  53.0520 131.8017 0001467 106.5999 253.5151 15.06399821256287,15.06399821,0.0001467,LEO
45096,STARLINK-1152,2020,95.59,227.0,+,53.05,Active,1,LEO,USA,USA,Commercial,Communications,Falcon,1 45096U 20006BE  24263.91497831 -.00000153  00000+0  86615-5 0  9991,2 45096  53.0528 131.7992 0001759 126.6887 233.4263 15.06401902256263,15.06401902,0.0001759,LEO
45098,STARLINK-1184,2020,95.59,227.0,+,53.05,Active,1,LEO,USA,USA,Commercial,Communications,Falcon,1 45098U 20006BG  24264.36095703 -.00002154  00000+0 -12570-3 0  9996,2 45098  53.0525 129.7910 0001336 109.9688 250.1445 15.06408162256334,15.06408162,0.0001336,LEO
45099,STARLINK-1186,2020,95.59,227.0,+,53.05,Active,1,LEO,USA,USA,Commercial,Communications,Falcon,1 45099U 20006BH  24264.32780525  .00010218  00000+0  70387-3 0  9994,2 45099  53.0522 129.9505 0001343  82.8379 277.2763 15.06401074256336,15.06401074,0.0001343,LEO
45100,STARLINK-1193,2020,95.59,227.0,+,53.05,Active,1,LEO,USA,USA,Commercial,Communications,Falcon,1 45100U 20006BJ  24264.62267729  .00012730  00000+0  87182-3 0  9998,2 45100  53.0521 128.6277 0001220  97.9790 262.1337 15.06406628256372,15.06406628,0.000122,LEO
45131,ONEWEB-0013,2020,109.97,148.0,+,87.87,Active,1,LEO,Kazakhstan,UK,Commercial,Communications,Soyuz,1 45131U 20008A   24264.48749284 -.00000653  00000+0 -19332-2 0  9993,2 45131  87.8701 180.5586 0000893  69.9974 290.1249 13.09390445223006,13.09390445,8.93e-05,LEO
45132,ONEWEB-0017,2020,109.89,148.0,+,87.9,Active,1,LEO,Kazakhstan,UK,Commercial,Communications,Soyuz,1 45132U 20008B   24263.78168105  .00000524  00000+0  14639-2 0  9993,2 45132  87.8984 162.7297 0001997  78.8678 281.2674 13.10373815224735,13.10373815,0.0001997,LEO
45133,ONEWEB-0020,2020,109.89,148.0,+,87.9,Active,1,LEO,Kazakhstan,UK,Commercial,Communications,Soyuz,1 45133U 20008C   24264.43901630 -.00000510  00000+0 -14960-2 0  9999,2 45133  87.8981 162.5850 0002014  74.1327 286.0022 13.10371683225212,13.10371683,0.0002014,LEO
45134,ONEWEB-0021,2020,109.89,148.0,+,87.9,Active,1,LEO,Kazakhstan,UK,Commercial,Communications,Soyuz,1 45134U 20008D   24264.45395129 -.00000595  00000+0 -17400-2 0  9997,2 45134  87.8989 162.6020 0001666  78.7366 281.3948 13.10375668225522,13.10375668,0.0001666,LEO
45136,ONEWEB-0023,2020,109.89,148.0,+,87.9,Active,1,LEO,Kazakhstan,UK,Commercial,Communications,Soyuz,1 45136U 20008F   24264.16097406  .00000461  00000+0  12845-2 0  9992,2 45136  87.8987 162.6486 0001801  62.2740 297.8570 13.10378811224911,13.10378811,0.0001801,LEO
45137,ONEWEB-0024,2020,109.89,148.0,+,87.9,Active,1,LEO,Kazakhstan,UK,Commercial,Communications,Soyuz,1 45137U 20008G   24264.43735123 -.00000513  00000+0 -15070-2 0  9991,2 45137  87.8975 162.5719 0001803  75.4876 284.6451 13.10370598225114,13.10370598,0.0001803,LEO
45138,ONEWEB-0025,2020,109.89,148.0,+,87.9,Active,1,LEO,Kazakhstan,UK,Commercial,Communications,Soyuz,1 45138U 20008H   24264.45561181 -.00000267  00000+0 -80109-3 0  9997,2 45138  87.8976 162.5687 0001637  70.6262 289.5042 13.10378516225445,13.10378516,0.0001637,LEO
45139,ONEWEB-0026,2020,109.8,148.0,+,87.9,Active,1,LEO,Kazakhstan,UK,Commercial,Communications,Soyuz,1 45139U 20008J   24264.44573813  .00000425  00000+0  11624-2 0  9991,2 45139  87.8963 147.4800 0001948  75.9590 284.1754 13.11415988227919,13.11415988,0.0001948,LEO
45140,ONEWEB-0028,2020,109.81,148.0,+,87.9,Active,1,LEO,Kazakhstan,UK,Commercial,Communications,Soyuz,1 45140U 20008K   24264.40078436 -.00000517  00000+0 -14949-2 0  9997,2 45140  87.8964 147.5247 0001118  69.6551 290.4697 13.11415407225420,13.11415407,0.0001118,LEO
45141,ONEWEB-0032,2020,109.89,148.0,+,87.9,Active,1,LEO,Kazakhstan,UK,Commercial,Communications,Soyuz,1 45141U 20008L   24263.78335719 -.00000867  00000+0 -25198-2 0  9994,2 45141  87.8976 162.7490 0001688  74.1352 285.9961 13.10380504225088,13.10380504,0.0001688,LEO
45142,ONEWEB-0033,2020,109.89,148.0,+,87.9,Active,1,LEO,Kazakhstan,UK,Commercial,Communications,Soyuz,1 45142U 20008M   24264.44564916 -.00000643  00000+0 -18782-2 0  9995,2 45142  87.8978 162.6282 0002050  77.1857 282.9500 13.10373071225083,13.10373071,0.000205,LEO
45143,ONEWEB-0035,2020,109.9,148.0,+,87.9,Active,1,LEO,Kazakhstan,UK,Commercial,Communications,Soyuz,1 45143U 20008N   24264.17176945  .00000814  00000+0  22962-2 0  9990,2 45143  87.8980 162.6686 0001913  77.0349 283.0992 13.10370847224777,13.10370847,0.0001913,LEO
45144,ONEWEB-0036,2020,109.89,148.0,+,87.9,Active,1,LEO,Kazakhstan,UK,Commercial,Communications,Soyuz,1 45144U 20008P   24264.16181640  .00000422  00000+0  11713-2 0  9995,2 45144  87.8979 162.6240 0001726  65.0394 295.0913 13.10377434225205,13.10377434,0.0001726,LEO
45145,ONEWEB-0038,2020,109.81,148.0,+,87.9,Active,1,LEO,Kazakhstan,UK,Commercial,Communications,Soyuz,1 45145U 20008Q   24264.44403962  .00000516  00000+0  14200-2 0  9999,2 45145  87.8961 147.4776 0001193  97.3298 262.7966 13.11415229227130,13.11415229,0.0001193,LEO
45146,ONEWEB-0039,2020,109.89,148.0,+,87.9,Active,1,LEO,Kazakhstan,UK,Commercial,Communications,Soyuz,1 45146U 20008R   24264.44897194 -.00000626  00000+0 -18301-2 0  9994,2 45146  87.8982 162.5864 0001466  64.1014 296.0264 13.10375005225035,13.10375005,0.0001466,LEO
45147,ONEWEB-0040,2020,109.89,148.0,+,87.9,Active,1,LEO,Kazakhstan,UK,Commercial,Communications,Soyuz,1 45147U 20008S   24263.75514153  .00003368  00000+0  96103-2 0  9999,2 45147  87.8989 162.7314 0001794  73.8758 286.2567 13.10356798224642,13.10356798,0.0001794,LEO
45149,ONEWEB-0043,2020,109.89,148.0,+,87.9,Active,1,LEO,Kazakhstan,UK,Commercial,Communications,Soyuz,1 45149U 20008U   24264.44398680 -.00000650  00000+0 -18987-2 0  9990,2 45149  87.8985 162.5966 0001441  63.4278 296.6997 13.10372301225058,13.10372301,0.0001441,LEO
45150,ONEWEB-0044,2020,109.89,148.0,+,87.9,Active,1,LEO,Kazakhstan,UK,Commercial,Communications,Soyuz,1 45150U 20008V   24264.16680198  .00000647  00000+0  18172-2 0  9999,2 45150  87.8979 162.6455 0001561  68.4474 291.6820 13.10376728225319,13.10376728,0.0001561,LEO
45151,ONEWEB-0045,2020,109.8,148.0,+,87.9,Active,1,LEO,Kazakhstan,UK,Commercial,Communications,Soyuz,1 45151U 20008W   24264.37452456  .00000317  00000+0  85792-3 0  9994,2 45151  87.8963 147.4726 0001721  77.1511 282.9810 13.11415706227205,13.11415706,0.0001721,LEO
45152,ONEWEB-0047,2020,109.89,148.0,+,87.9,Active,1,LEO,Kazakhstan,UK,Commercial,Communications,Soyuz,1 45152U 20008X   24263.77836856  .00000388  00000+0  10750-2 0  9997,2 45152  87.8984 162.7272 0001803  72.3575 287.7749 13.10377179224989,13.10377179,0.0001803,LEO
45153,ONEWEB-0048,2020,109.89,148.0,+,87.9,Active,1,LEO,Kazakhstan,UK,Commercial,Communications,Soyuz,1 45153U 20008Y   24264.46059735  .00000007  00000+0 -15778-4 0  9994,2 45153  87.8985 162.6103 0001780  70.8529 289.2791 13.10378143224682,13.10378143,0.000178,LEO
45154,ONEWEB-0049,2020,109.89,148.0,+,87.9,Active,1,LEO,Kazakhstan,UK,Commercial,Communications,Soyuz,1 45154U 20008Z   24264.15683126  .00000221  00000+0  59661-3 0  9993,2 45154  87.8989 162.6532 0001889  56.4835 303.6472 13.10378562224865,13.10378562,0.0001889,LEO
